KUIPER-00214            
1 67778U 26030Q   26063.99751392  .00007232  00000+0  21009-3 0  9996
2 67778  51.8838 241.6296 0000321 154.9541 205.1461 15.36551093  4376
KUIPER-00215            
1 67779U 26030R   26063.96246906  .00033944  00000+0  10139-2 0  9994
2 67779  51.8839 242.1372 0009991  47.0518 313.1303 15.34245911  4368
KUIPER-00218            
1 67780U 26030S   26063.95310939  .00035428  00000+0  10344-2 0  9990
2 67780  51.8836 242.0756 0006601  36.8818 323.2620 15.34968269  4368
KUIPER-00220            
1 67781U 26030T   26063.95909103  .00027709  00000+0  82308-3 0  9991
2 67781  51.8810 242.1075 0008196  43.2976 316.8653 15.34540092  4368
KUIPER-00222            
1 67782U 26030U   26063.98077718  .00079505  00000+0  24763-2 0  9994
2 67782  51.8797 242.2438 0017700  46.4411 313.8040 15.32422890  4367
KUIPER-00223            
1 67783U 26030V   26063.96571560  .00027866  00000+0  83998-3 0  9996
2 67783  51.8822 242.1544 0012253  47.0413 313.1598 15.34035132  4363
KUIPER-00225            
1 67784U 26030W   26064.00944956  .00028249  00000+0  80935-3 0  9990
2 67784  51.8810 241.6996 0004128  26.5884 333.5314 15.35688077  4378
KUIPER-00226            
1 67785U 26030X   26063.99168660  .00036832  00000+0  12009-2 0  9991
2 67785  51.8805 242.3152 0019968  59.9274 300.3687 15.31268779  4369
KUIPER-00259            
1 67786U 26030Y   26063.95511546  .00035313  00000+0  10341-2 0  9993
2 67786  51.8811 242.0820 0008258  35.7954 324.3583 15.34866797  4361
KUIPER-00260            
1 67787U 26030Z   26064.00193103  .00031664  00000+0  88945-3 0  9997
2 67787  51.8797 241.6502 0001010  51.9851 308.1227 15.36252409  4289
KUIPER-00262            
1 67788U 26030AA  26063.99849446  .00037288  00000+0  10341-2 0  9995
2 67788  51.8807 241.6308 0000355 117.8319 242.2704 15.36571962  4374
KUIPER-00266            
1 67789U 26030AB  26063.99620107  .00024194  00000+0  80059-3 0  9993
2 67789  51.8805 242.3416 0022736  59.5056 300.8170 15.30959366  4367
